SQX-1 R/B               
1 64963U 25160B   25228.80646708  .00044941  27962-5  26282-3 0  9996
2 64963  97.4384 304.4041 0163423 285.0233  73.2989 15.62031760  2914
STARLINK-34617          
1 65015U 25161A   25228.91670139 -.01621704  00000+0 -15715-1 0  9999
2 65015  53.1599 169.7572 0001009  96.4655   1.0685 15.68730875  3949
STARLINK-34627          
1 65016U 25161B   25228.91670139 -.01618121  00000+0 -15676-1 0  9995
2 65016  53.1599 169.7525 0001052  71.9082  27.5415 15.68730190  4055
STARLINK-34549          
1 65017U 25161C   25228.91670139 -.01616234  00000+0 -15655-1 0  9996
2 65017  53.1599 169.7488 0001220  71.7157  29.6505 15.68729099  4051
STARLINK-34623          
1 65018U 25161D   25228.91670139 -.01616356  00000+0 -15659-1 0  9996
2 65018  53.1598 169.7445 0001005 101.3641   1.9234 15.68727158  3946
STARLINK-34232          
1 65019U 25161E   25228.91670139 -.01617224  00000+0 -15668-1 0  9992
2 65019  53.1598 169.7402 0000979 102.9229   2.2810 15.68728147  4054
STARLINK-34772          
1 65020U 25161F   25228.91670139 -.01618780  00000+0 -15684-1 0  9990
2 65020  53.1597 169.7363 0001070  99.6985   7.4214 15.68728795  4059
STARLINK-34778          
1 65021U 25161G   25228.91670139 -.01621735  00000+0 -15717-1 0  9992
2 65021  53.1598 169.7328 0000890  97.7190  11.3189 15.68729494  3891
STARLINK-34789          
1 65022U 25161H   25228.91670139 -.01620632  00000+0 -15703-1 0  9993
2 65022  53.1597 169.7284 0001035  72.4000  38.5503 15.68731032  3896
STARLINK-34858          
1 65023U 25161J   25228.91670139 -.01601577  00000+0 -15506-1 0  9992
2 65023  53.1595 169.7241 0001291  96.6233  16.2600 15.68711472  3895
STARLINK-34773          
1 65024U 25161K   25228.91670139 -.01619909  00000+0 -15695-1 0  9990
2 65024  53.1597 169.7200 0001051  75.7912  38.9926 15.68731021  3893
STARLINK-34727          
1 65025U 25161L   25228.91670139 -.01619748  00000+0 -15692-1 0  9999
2 65025  53.1595 169.7158 0001231  76.3307  40.3699 15.68731112  3951
STARLINK-34804          
1 65026U 25161M   25228.91670139 -.01619979  00000+0 -15696-1 0  9990
2 65026  53.1596 169.7123 0001093  77.3741  41.2451 15.68730255  3946
STARLINK-34655          
1 65027U 25161N   25228.91670139 -.01620372  00000+0 -15701-1 0  9997
2 65027  53.1596 169.7083 0001060 100.5184  20.0185 15.68729506  3942
STARLINK-34807          
1 65028U 25161P   25228.91670139 -.01620779  00000+0 -15706-1 0  9994
2 65028  53.1595 169.7045 0000952 102.3982  20.0568 15.68729717  3944
STARLINK-34731          
1 65029U 25161Q   25228.91670139 -.01619666  00000+0 -15693-1 0  9993
2 65029  53.1595 169.7004 0001028  95.6424  28.7271 15.68730256  3946
STARLINK-34614          
1 65030U 25161R   25228.91670139 -.01606918  00000+0 -15562-1 0  9996
2 65030  53.1596 169.6957 0000959  85.9012  40.3942 15.68718276  3945
STARLINK-34677          
1 65031U 25161S   25228.91670139 -.01616391  00000+0 -15658-1 0  9999
2 65031  53.1595 169.6921 0001194  73.4001  54.8048 15.68727386  3947
STARLINK-34656          
1 65032U 25161T   25228.91670139 -.01621616  00000+0 -15713-1 0  9998
2 65032  53.1591 169.6878 0001108  77.3051  52.8139 15.68731456  3940
STARLINK-34671          
1 65033U 25161U   25228.91670139 -.01614563  00000+0 -15641-1 0  9992
2 65033  53.1592 169.6831 0000944 102.7563  29.2845 15.68725301  3943
STARLINK-34610          
1 65034U 25161V   25228.91670139 -.01617473  00000+0 -15669-1 0  9996
2 65034  53.1595 169.6794 0001123  80.2821  53.6716 15.68729349  3845
STARLINK-34286          
1 65035U 25161W   25228.91670139 -.01611494  00000+0 -15606-1 0  9995
2 65035  53.1595 169.6762 0001145  81.1518  54.7209 15.68725603  4050
STARLINK-34770          
1 65036U 25161X   25228.91670139 -.01615855  00000+0 -15653-1 0  9993
2 65036  53.1594 169.6721 0001104  99.4251  38.3646 15.68726979  3954
STARLINK-34776          
1 65037U 25161Y   25228.91670139 -.01622450  00000+0 -15722-1 0  9990
2 65037  53.1594 169.6677 0001167 102.4892  37.2161 15.68731062  4051
STARLINK-34827          
1 65038U 25161Z   25228.91670139 -.01617552  00000+0 -15670-1 0  9990
2 65038  53.1594 169.6635 0001157  85.0850  56.5376 15.68728797  4058
STARLINK-34721          
1 65039U 25161AA  25228.91670139 -.01616155  00000+0 -15656-1 0  9993
2 65039  53.1596 169.6597 0001169 102.1848  41.3565 15.68726748  3953
STARLINK-34819          
1 65040U 25161AB  25228.91670139 -.01619542  00000+0 -15691-1 0  9997
2 65040  53.1594 169.6558 0001140  78.6385  66.8164 15.68730112  4051
STARLINK-34820          
1 65041U 25161AC  25228.91670139 -.01624067  00000+0 -15734-1 0  9994
2 65041  53.1593 169.6519 0001447  92.0200  55.3450 15.68736847  4056
STARLINK-34824          
1 65042U 25161AD  25228.91670139 -.01614242  00000+0 -15635-1 0  9999
2 65042  53.1594 169.6478 0001249  78.6648  70.6260 15.68726105  4053
HULIANWANG DIGUI-40     
1 65043U 25162A   25228.72527886 -.00000017  00000+0  84169-4 0  9998
2 65043  50.0010 304.2148 0008073 322.8056  37.2288 14.04174687  2444
HULIANWANG DIGUI-41     
1 65044U 25162B   25228.72234169 -.00000017  00000+0  84675-4 0  9990
2 65044  50.0019 304.2009 0007173 319.5570  40.4801 14.04167745  2459
HULIANWANG DIGUI-42     
1 65045U 25162C   25228.72036762 -.00000014  00000+0  86025-4 0  9998
2 65045  49.9983 304.1825 0007336 327.3195  32.7255 14.04165518  2456
HULIANWANG DIGUI-43     
1 65046U 25162D   25228.71834688 -.00000018  00000+0  83704-4 0  9996
2 65046  50.0001 304.1758 0006571 323.4881  36.5575 14.04174264  2450
HULIANWANG DIGUI-44     
1 65047U 25162E   25225.65644425 -.00000008  00000+0  89189-4 0  9997
2 65047  50.0037 316.6449 0007795 321.2077  38.8267 14.04870883  2023
HULIANWANG DIGUI-45     
1 65048U 25162F   25225.79707476  .00000001  00000+0  93908-4 0  9995
2 65048  50.0066 316.0613 0005879 323.2339  36.8163 14.05303433  2045
HULIANWANG DIGUI-46     
1 65049U 25162G   25228.71241327 -.00000004  00000+0  92752-4 0  9999
2 65049  50.0078 304.1599 0007357 338.0153  22.0435 14.04207007  2454
HULIANWANG DIGUI-47     
1 65050U 25162H   25228.71050524 -.00000011  00000+0  88315-4 0  9996
2 65050  50.0051 304.1436 0007712 341.5520  18.5104 14.04265610  2456
HULIANWANG DIGUI-48     
1 65051U 25162J   25228.70835714 -.00000022  00000+0  79820-4 0  9991
2 65051  50.0050 304.1338 0006035 340.8744  19.1934 14.05519208  2458
CZ-8A R/B               
1 65052U 25162K   25228.62531159 -.00000035  00000+0  46367-4 0  9993
2 65052  50.0025 301.6125 0118659 144.3350 216.5567 14.30551130  2489
NISAR                   
1 65053U 25163A   25228.78213326  .00000222  00000+0  74820-4 0  9997
2 65053  98.4440  55.5779 0012745 215.0444 144.9910 14.45890293  2495
GSLV R/B                
1 65054U 25163B   25228.76296964  .00000494  00000+0  14633-3 0  9991
2 65054  98.4383  55.5879 0010812 252.3778 107.6234 14.47506604  2497
PRSC-S1                 
1 65055U 25164A   25228.78001459  .00004316  00000+0  30758-3 0  9991
2 65055  41.1292 204.2343 0005362 333.1261  26.9274 15.05396320  2494
STARLINK-34788          
1 65056U 25165A   25228.91670139 -.02624281  00000+0 -68551-1 0  9998
2 65056  97.6033 301.5402 0002525  93.3410 107.8364 15.42653277  3656
STARLINK-34745          
1 65057U 25165B   25228.91670139  .00024219  00000+0  44604-3 0  9995
2 65057  97.6037 301.5512 0001410  85.4013 135.8536 15.49165659  3657
STARLINK-34779          
1 65058U 25165C   25228.91670139  .00030293  00000+0  55724-3 0  9990
2 65058  97.6038 301.5524 0001512  83.8227 139.3688 15.49155111  3653
STARLINK-34803          
1 65059U 25165D   25228.91670139  .00021734  00000+0  40054-3 0  9991
2 65059  97.6037 301.5528 0001428  86.0857 139.0076 15.49168686  3656
STARLINK-34717          
1 65060U 25165E   25228.91670139  .00014978  00000+0  27685-3 0  9990
2 65060  97.6038 301.5533 0001312  89.0863 137.9287 15.49167749  3657
STARLINK-34750          
1 65061U 25165F   25228.91670139 -.02257285  00000+0 -50997-1 0  9995
2 65061  97.6041 301.5518 0002144 108.0237 118.7109 15.46942328  3657
STARLINK-34708          
1 65062U 25165G   25228.91670139  .00024385  00000+0  44913-3 0  9998
2 65062  97.6040 301.5555 0001365  85.5472 145.3167 15.49163146  3658
STARLINK-34798          
1 65063U 25165H   25228.91670139  .00020809  00000+0  38362-3 0  9997
2 65063  97.6039 301.5560 0001446  92.0914 140.6834 15.49169036  3650
STARLINK-34793          
1 65064U 25165J   25228.91670139 -.01990510  00000+0 -50226-1 0  9997
2 65064  97.6037 301.5577 0001985  78.3190 142.5508 15.43252075  3499
STARLINK-34806          
1 65065U 25165K   25228.91670139  .00028764  00000+0  52904-3 0  9995
2 65065  97.6038 301.5582 0001632  93.2247 143.3832 15.49169054  3652
STARLINK-34739          
1 65066U 25165L   25228.91670139  .00025855  00000+0  47600-3 0  9991
2 65066  97.6037 301.5589 0001301  85.5022 153.0430 15.49163628  3447
STARLINK-34802          
1 65067U 25165M   25228.91670139 -.02195067  00000+0 -47165-1 0  9993
2 65067  97.6040 301.5582 0001703  92.6583 147.3751 15.48274486  3651
STARLINK-34810          
1 65068U 25165N   25228.91670139  .00016220  00000+0  29958-3 0  9995
2 65068  97.6038 301.5602 0001239  82.7595 159.6217 15.49169352  3658
STARLINK-34809          
1 65069U 25165P   25228.91670139  .00013631  00000+0  25210-3 0  9996
2 65069  97.6038 301.5610 0001139  86.9163 157.3801 15.49174028  3654
STARLINK-34794          
1 65070U 25165Q   25228.91670139  .00019230  00000+0  35474-3 0  9992
2 65070  97.6038 301.5620 0001369  85.6859 160.5371 15.49167530  3658
STARLINK-34805          
1 65071U 25165R   25228.91670139  .00026684  00000+0  49112-3 0  9998
2 65071  97.6039 301.5631 0001335  85.6014 162.5431 15.49164562  3659
STARLINK-34735          
1 65072U 25165S   25228.91670139  .00026724  00000+0  49187-3 0  9996
2 65072  97.6039 301.5640 0001274  84.7826 165.2841 15.49163533  3655
